     2.100          NAVIGATION                              RINEX VERSION / TYPE
fic2rin                                 11/24/2011 00:08:23 PGM / RUN BY / DATE
                                                            END OF HEADER
27 11 11 23 15 59 44.0  .328660476953D-03  .386535248253D-11  .000000000000D+00
     .140000000000D+02 -.162406250000D+03  .376229957202D-08 -.249800310228D+01
    -.800006091595D-05  .218225587159D-01  .561773777008D-05  .515359808159D+04
     .316784000000D+06  .219792127609D-06 -.102809423490D+01  .236555933952D-06
     .981615908494D+00  .274312500000D+03 -.117640094770D+01 -.762781772923D-08
    -.271082720255D-09  .100000000000D+01  .166300000000D+04  .000000000000D+00
     .240000000000D+01  .630000000000D+02 -.419095158577D-08  .140000000000D+02
     .314796000000D+06  .400000000000D+01
29 11 11 23 15 59 44.0  .259991269559D-03  .341060513165D-11  .000000000000D+00
     .100000000000D+01  .132812500000D+02  .520593113364D-08  .700168251812D+00
     .728294253349D-06  .208845548332D-02  .486709177494D-05  .515367220306D+04
     .316784000000D+06 -.726431608200D-07  .114842915527D+01 -.204890966415D-07
     .962070881154D+00  .288593750000D+03 -.117981727834D+01 -.836034824206D-08
     .298941023522D-09  .100000000000D+01  .166300000000D+04  .000000000000D+00
     .240000000000D+01  .000000000000D+00 -.931322574615D-08  .100000000000D+01
     .314976000000D+06  .400000000000D+01
 9 11 11 23 17 59 44.0  .120319891721D-03  .261479726760D-11  .000000000000D+00
     .260000000000D+02 -.163031250000D+03  .377051419991D-08  .175846616256D+01
    -.868737697601D-05  .171653976431D-01  .621750950813D-05  .515365667725D+04
     .323984000000D+06  .257045030594D-06 -.100176135691D+01 -.346451997757D-06
     .984114015202D+00  .272468750000D+03  .160166330140D+01 -.788497129785D-08
    -.335371112410D-09  .100000000000D+01  .166300000000D+04  .000000000000D+00
     .240000000000D+01  .000000000000D+00 -.558793544769D-08  .260000000000D+02
     .316806000000D+06  .400000000000D+01
26 11 11 23 17 59 44.0 -.236580148339D-03 -.135287336889D-10  .000000000000D+00
     .110000000000D+02  .228750000000D+02  .425339145654D-08 -.240360675960D+01
     .124983489513D-05  .204792458098D-01 -.664964318275D-06  .515365196991D+04
     .323984000000D+06  .180676579475D-06 -.195305881779D+01 -.558793544769D-07
     .985227812270D+00  .404562500000D+03  .116549678789D+01 -.809712299196D-08
     .135005623526D-09  .100000000000D+01  .166300000000D+04  .000000000000D+00
     .240000000000D+01  .000000000000D+00 -.605359673500D-08  .110000000000D+02
     .316806000000D+06  .400000000000D+01
27 11 11 23 17 59 44.0  .328688882291D-03  .386535248253D-11  .000000000000D+00
     .150000000000D+02 -.156125000000D+03  .401659587877D-08 -.144789113251D+01
    -.771693885326D-05  .218239849200D-01  .725686550140D-05  .515359285355D+04
     .323984000000D+06 -.374391674995D-06 -.102815102685D+01  .271946191788D-06
     .981611228619D+00  .254062500000D+03 -.117628839663D+01 -.819962726167D-08
    -.274654297597D-09  .100000000000D+01  .166300000000D+04  .000000000000D+00
     .240000000000D+01  .630000000000D+02 -.419095158577D-08  .150000000000D+02
     .316806000000D+06  .400000000000D+01
29 11 11 23 17 59 44.0  .260015483946D-03  .341060513165D-11  .000000000000D+00
     .280000000000D+02  .129062500000D+02  .512699927438D-08  .175081149052D+01
     .681728124619D-06  .208809564356D-02  .532530248165D-05  .515367027473D+04
     .323984000000D+06  .763684511185D-07  .114836955598D+01 -.130385160446D-07
     .962073719215D+00  .281406250000D+03 -.118027344107D+01 -.820927052050D-08
     .296083761649D-09  .100000000000D+01  .166300000000D+04  .000000000000D+00
     .240000000000D+01  .000000000000D+00 -.931322574615D-08  .280000000000D+02
     .316806000000D+06  .400000000000D+01
32 11 11 23 17 59 44.0 -.366383697838D-03 -.602540239925D-11  .000000000000D+00
     .700000000000D+01  .144093750000D+03  .429660754238D-08 -.311347922728D+01
     .744871795177D-05  .121032057796D-01  .976771116257D-05  .515381004333D+04
     .323984000000D+06 -.121071934700D-06 -.299435250024D+01  .152736902237D-06
     .953722513845D+00  .185406250000D+03 -.670889388893D+00 -.779961059937D-08
     .700029159024D-10  .100000000000D+01  .166300000000D+04  .000000000000D+00
     .240000000000D+01  .000000000000D+00 -.279396772385D-08  .700000000000D+01
     .316806000000D+06  .400000000000D+01
 1 11 11 23 18  0  0.0  .109303276986D-03  .195541360881D-10  .000000000000D+00
     .470000000000D+02 -.175000000000D+02  .466840874368D-08  .190496359532D+01
    -.873580574989D-06  .521257403307D-03  .970810651779D-05  .515366381454D+04
     .324000000000D+06 -.279396772385D-07  .214739025437D+01  .409781932831D-07
     .959980390237D+00  .192218750000D+03  .128239088251D+01 -.795140263641D-08
    -.639312344211D-09  .100000000000D+01  .166300000000D+04  .000000000000D+00
     .240000000000D+01  .000000000000D+00  .791624188423D-08  .470000000000D+02
     .316806000000D+06  .400000000000D+01
 2 11 11 23 18  0  0.0  .367010943592D-03  .181898940355D-11  .000000000000D+00
     .240000000000D+02 -.175937500000D+02  .513985695282D-08 -.232899393208D+01
    -.985339283943D-06  .106337756151D-01  .101700425148D-04  .515360308838D+04
     .324000000000D+06 -.558793544769D-08  .213768724101D+01 -.298023223877D-06
     .938555447333D+00  .170062500000D+03 -.291074897613D+01 -.816569727693D-08
    -.681814114580D-09  .100000000000D+01  .166300000000D+04  .000000000000D+00
     .240000000000D+01  .000000000000D+00 -.176951289177D-07  .240000000000D+02
     .316806000000D+06  .400000000000D+01
 3 11 11 23 18  0  0.0  .798939727247D-03  .500222085975D-11  .000000000000D+00
     .114000000000D+03  .282812500000D+02  .569630870269D-08 -.218196923438D+01
     .133737921715D-05  .149268290261D-01  .484474003315D-05  .515367937088D+04
     .324000000000D+06  .203028321266D-06  .976312815828D+00  .260770320892D-07
     .929628591014D+00  .263625000000D+03  .115853131266D+01 -.844570894053D-08
     .585024368613D-09  .100000000000D+01  .166300000000D+04  .000000000000D+00
     .485000000000D+01  .000000000000D+00 -.465661287308D-08  .114000000000D+03
     .316806000000D+06  .400000000000D+01
 4 11 11 23 18  0  0.0  .126399099827D-04  .112549969344D-10  .000000000000D+00
     .820000000000D+02 -.152500000000D+02  .527950562689D-08  .827560937063D+00
    -.547617673874D-06  .100007619476D-01  .990554690361D-05  .515374225235D+04
     .324000000000D+06 -.130385160446D-07  .215482538629D+01  .968575477600D-07
     .937645168502D+00  .178156250000D+03  .801287272145D+00 -.838463496799D-08
    -.805747848346D-09  .100000000000D+01  .166300000000D+04  .000000000000D+00
     .240000000000D+01  .000000000000D+00 -.651925802231D-08  .820000000000D+02
     .316806000000D+06  .400000000000D+01
 5 11 11 23 18  0  0.0 -.249019358307D-03 -.488853402203D-11  .000000000000D+00
     .280000000000D+02  .148875000000D+03  .445125684129D-08 -.389351954392D+00
     .761263072491D-05  .266107404605D-02  .108610838652D-04  .515380924416D+04
     .324000000000D+06  .577419996262D-07 -.308328908197D+01  .745058059692D-08
     .953030604796D+00  .166000000000D+03  .206544630110D+00 -.804997817105D-08
     .750031241812D-11  .100000000000D+01  .166300000000D+04  .000000000000D+00
     .240000000000D+01  .000000000000D+00 -.102445483208D-07  .280000000000D+02
     .316806000000D+06  .400000000000D+01
 6 11 11 23 18  0  0.0  .661751255393D-05  .511590769747D-11  .000000000000D+00
     .550000000000D+02  .192500000000D+02  .569345144082D-08 -.223635158868D+00
     .895932316780D-06  .671872682869D-02  .503472983837D-05  .515369169998D+04
     .324000000000D+06  .000000000000D+00  .105145522407D+01 -.763684511185D-07
     .936575241421D+00  .269750000000D+03 -.644494108669D+00 -.872143471133D-08
     .406088343781D-09  .100000000000D+01  .166300000000D+04  .000000000000D+00
     .240000000000D+01  .000000000000D+00 -.512227416039D-08  .550000000000D+02
     .316806000000D+06  .400000000000D+01
 7 11 11 23 18  0  0.0  .390973873436D-04  .227373675443D-11  .000000000000D+00
     .750000000000D+02 -.142468750000D+03  .407266964304D-08  .241810769075D+01
    -.738725066185D-05  .509622029494D-02  .741519033909D-05  .515363156128D+04
     .324000000000D+06 -.987201929092D-07 -.974650500551D+00  .484287738800D-07
     .975307864253D+00  .244968750000D+03 -.302117508128D+01 -.795104547867D-08
    -.344300055765D-09  .100000000000D+01  .166300000000D+04  .000000000000D+00
     .240000000000D+01  .000000000000D+00 -.111758708954D-07  .750000000000D+02
     .316806000000D+06  .400000000000D+01
 8 11 11 23 18  0  0.0  .120606273413D-06  .000000000000D+00  .000000000000D+00
     .820000000000D+02 -.147625000000D+03  .351228915808D-08  .189045748983D+01
    -.751949846745D-05  .121493621264D-01  .866316258907D-05  .515373641968D+04
     .324000000000D+06 -.968575477600D-07 -.895295496811D+00  .186264514923D-06
     .997292297250D+00  .234656250000D+03 -.299866482725D+01 -.767924844295D-08
    -.448590114150D-09  .100000000000D+01  .166300000000D+04  .000000000000D+00
     .340000000000D+01  .000000000000D+00 -.419095158577D-08  .820000000000D+02
     .316806000000D+06  .400000000000D+01
10 11 11 23 18  0  0.0 -.199745409191D-04 -.113686837722D-11  .000000000000D+00
     .390000000000D+02  .146250000000D+03  .467840916023D-08 -.325295927024D-01
     .770576298237D-05  .108228361933D-01  .971741974354D-05  .515365777969D+04
     .324000000000D+06  .651925802231D-07 -.306066184131D+01  .154599547386D-06
     .947941639449D+00  .183062500000D+03  .717109811622D+00 -.830498879326D-08
     .321441960776D-11  .100000000000D+01  .166300000000D+04  .000000000000D+00
     .240000000000D+01  .000000000000D+00 -.279396772385D-08  .390000000000D+02
     .316806000000D+06  .400000000000D+01
